$$SOE
2461302.500000000, A.D. 2026-Sep-19 00:00:00.0000, 4.024361621634647E+08, 6.253181778587330E+07, -1.054058292806648E+07,
2461309.500000000, A.D. 2026-Sep-26 00:00:00.0000, 4.001610977349850E+08, 7.346673333543016E+07, -1.093570245939857E+07,
2461316.500000000, A.D. 2026-Oct-03 00:00:00.0000, 3.975979161679695E+08, 8.434871740024616E+07, -1.132294774873251E+07,
2461323.500000000, A.D. 2026-Oct-10 00:00:00.0000, 3.947476336127031E+08, 9.516975682086760E+07, -1.170201631009459E+07,
2461330.500000000, A.D. 2026-Oct-17 00:00:00.0000, 3.916115117341137E+08, 1.059218435092334E+08, -1.207261077543781E+07,
2461337.500000000, A.D. 2026-Oct-24 00:00:00.0000, 3.881910588696434E+08, 1.165969830350312E+08, -1.243443926887289E+07,
2461344.500000000, A.D. 2026-Oct-31 00:00:00.0000, 3.844880309064130E+08, 1.271872031703850E+08, -1.278721580053657E+07,
2461351.500000000, A.D. 2026-Nov-07 00:00:00.0000, 3.805044322066684E+08, 1.376845624526998E+08, -1.313066070401426E+07,
2461358.500000000, A.D. 2026-Nov-14 00:00:00.0000, 3.762425167747885E+08, 1.480811596364833E+08, -1.346450106216338E+07,
2461365.500000000, A.D. 2026-Nov-21 00:00:00.0000, 3.717047878476713E+08, 1.583691446990693E+08, -1.378847089807212E+07,
2461372.500000000, A.D. 2026-Nov-28 00:00:00.0000, 3.668939949103394E+08, 1.685407283745887E+08, -1.410231128415681E+07,
2461379.500000000, A.D. 2026-Dec-05 00:00:00.0000, 3.618131317562260E+08, 1.785881895359778E+08, -1.440577075431866E+07,
2461386.500000000, A.D. 2026-Dec-12 00:00:00.0000, 3.564654357506591E+08, 1.885038835108200E+08, -1.469860577906731E+07,
2461393.500000000, A.D. 2026-Dec-19 00:00:00.0000, 3.508543864045236E+08, 1.982802513148190E+08, -1.498058112869103E+07,
2461400.500000000, A.D. 2026-Dec-26 00:00:00.0000, 3.449837031127921E+08, 2.079098289127201E+08, -1.525147018112059E+07,
2461407.500000000, A.D. 2027-Jan-02 00:00:00.0000, 3.388573423323885E+08, 2.173852562932906E+08, -1.551105521426562E+07,
2461414.500000000, A.D. 2027-Jan-09 00:00:00.0000, 3.324794943160992E+08, 2.266992863558791E+08, -1.575912769085230E+07,
2461421.500000000, A.D. 2027-Jan-16 00:00:00.0000, 3.258545794387851E+08, 2.358447935947281E+08, -1.599548853730457E+07,
2461428.500000000, A.D. 2027-Jan-23 00:00:00.0000, 3.189872441641085E+08, 2.448147825190144E+08, -1.621994842323001E+07,
2461435.500000000, A.D. 2027-Jan-30 00:00:00.0000, 3.118823568435799E+08, 2.536023957389394E+08, -1.643232806187268E+07,
2461442.500000000, A.D. 2027-Feb-06 00:00:00.0000, 3.045450037790796E+08, 2.622009220357858E+08, -1.663245854220097E+07,
2461449.500000000, A.D. 2027-Feb-13 00:00:00.0000, 2.969804850949637E+08, 2.706038056112977E+08, -1.682018155030172E+07,
2461456.500000000, A.D. 2027-Feb-20 00:00:00.0000, 2.891943080601225E+08, 2.788046557028788E+08, -1.699534932693645E+07,
2461463.500000000, A.D. 2027-Feb-27 00:00:00.0000, 2.811921792669263E+08, 2.867972533347448E+08, -1.715782475129193E+07,
2461470.500000000, A.D. 2027-Mar-06 00:00:00.0000, 2.729799987012902E+08, 2.945755571081538E+08, -1.730748167081225E+07,
2461477.500000000, A.D. 2027-Mar-13 00:00:00.0000, 2.645638541162520E+08, 3.021337100583793E+08, -1.744420516261353E+07,
2461484.500000000, A.D. 2027-Mar-20 00:00:00.0000, 2.559500145930240E+08, 3.094660467250957E+08, -1.756789169065063E+07,
2461491.500000000, A.D. 2027-Mar-27 00:00:00.0000, 2.471449235075211E+08, 3.165670998703675E+08, -1.767844922172795E+07,
2461498.500000000, A.D. 2027-Apr-03 00:00:00.0000, 2.381551911227233E+08, 3.234316067805184E+08, -1.777579732265988E+07,
2461505.500000000, A.D. 2027-Apr-10 00:00:00.0000, 2.289875868865141E+08, 3.300545151599331E+08, -1.785986724214296E+07,
2461512.500000000, A.D. 2027-Apr-17 00:00:00.0000, 2.196490314762645E+08, 3.364309885886650E+08, -1.793060198038881E+07,
2461519.500000000, A.D. 2027-Apr-24 00:00:00.0000, 2.101465886892886E+08, 3.425564114693189E+08, -1.798795635875027E+07,
2461526.500000000, A.D. 2027-May-01 00:00:00.0000, 2.004874574996231E+08, 3.484263934806367E+08, -1.803189711453086E+07,
2461533.500000000, A.D. 2027-May-08 00:00:00.0000, 1.906789646111228E+08, 3.540367742775282E+08, -1.806240298826589E+07,
2461540.500000000, A.D. 2027-May-15 00:00:00.0000, 1.807285560330727E+08, 3.593836293805525E+08, -1.807946458852997E+07,
2461547.500000000, A.D. 2027-May-22 00:00:00.0000, 1.706437861332236E+08, 3.644632746532311E+08, -1.808308410211697E+07,
2461554.500000000, A.D. 2027-May-29 00:00:00.0000, 1.604323075452955E+08, 3.692722678982633E+08, -1.807327527741054E+07,
2461561.500000000, A.D. 2027-Jun-05 00:00:00.0000, 1.501018628423173E+08, 3.738074107035392E+08, -1.805006350709440E+07,
2461568.500000000, A.D. 2027-Jun-12 00:00:00.0000, 1.396602759920008E+08, 3.780657509657461E+08, -1.801348579116887E+07,
2461575.500000000, A.D. 2027-Jun-19 00:00:00.0000, 1.291154432858400E+08, 3.820445851551802E+08, -1.796359062655203E+07,
2461582.500000000, A.D. 2027-Jun-26 00:00:00.0000, 1.184753240450746E+08, 3.857414600607159E+08, -1.790043787063022E+07,
2461589.500000000, A.D. 2027-Jul-03 00:00:00.0000, 1.077479312593276E+08, 3.891541740232850E+08, -1.782409859052052E+07,
2461596.500000000, A.D. 2027-Jul-10 00:00:00.0000, 9.694132221684259E+07, 3.922807776663803E+08, -1.773465490079725E+07,
2461603.500000000, A.D. 2027-Jul-17 00:00:00.0000, 8.606358918220159E+07, 3.951195740859308E+08, -1.763219979606129E+07,
2461610.500000000, A.D. 2027-Jul-24 00:00:00.0000, 7.512285029554236E+07, 3.976691184418290E+08, -1.751683699776787E+07,
2461617.500000000, A.D. 2027-Jul-31 00:00:00.0000, 6.412724112238390E+07, 3.999282171969149E+08, -1.738868083418095E+07,
2461624.500000000, A.D. 2027-Aug-07 00:00:00.0000, 5.308490667361929E+07, 4.018959281693244E+08, -1.724785604203475E+07,
2461631.500000000, A.D. 2027-Aug-14 00:00:00.0000, 4.200399161753443E+07, 4.035715611563318E+08, -1.709449730082181E+07,
2461638.500000000, A.D. 2027-Aug-21 00:00:00.0000, 3.089262932069422E+07, 4.049546757723875E+08, -1.692874883165699E+07,
2461645.500000000, A.D. 2027-Aug-28 00:00:00.0000, 1.975893316429966E+07, 4.060450777183960E+08, -1.675076427790727E+07,
2461652.500000000, A.D. 2027-Sep-04 00:00:00.0000, 8.610988973707622E+06, 4.068428159994361E+08, -1.656070655635405E+07,
2461659.500000000, A.D. 2027-Sep-11 00:00:00.0000, -2.543152817679653E+06, 4.073481804403414E+08, -1.635874760591927E+07,
2461666.500000000, A.D. 2027-Sep-18 00:00:00.0000, -1.369548512346317E+07, 4.075616988610636E+08, -1.614506810012242E+07,
2461673.500000000, A.D. 2027-Sep-25 00:00:00.0000, -2.483805203688692E+07, 4.074841338483981E+08, -1.591985715158853E+07,
2461680.500000000, A.D. 2027-Oct-02 00:00:00.0000, -3.596295645429283E+07, 4.071164791668950E+08, -1.568331201430747E+07,
2461687.500000000, A.D. 2027-Oct-09 00:00:00.0000, -4.706236745610853E+07, 4.064599558202873E+08, -1.543563778714156E+07,
2461694.500000000, A.D. 2027-Oct-16 00:00:00.0000, -5.812852737240317E+07, 4.055160077247171E+08, -1.517704712988755E+07,
2461701.500000000, A.D. 2027-Oct-23 00:00:00.0000, -6.915375826457015E+07, 4.042862970044594E+08, -1.490776001715773E+07,
2461708.500000000, A.D. 2027-Oct-30 00:00:00.0000, -8.013046744142762E+07, 4.027726995376046E+08, -1.462800351553237E+07,
2461715.500000000, A.D. 2027-Nov-06 00:00:00.0000, -9.105115316691005E+07, 4.009773018987357E+08, -1.433801138628447E+07,
2461722.500000000, A.D. 2027-Nov-13 00:00:00.0000, -1.019084125369430E+08, 3.989023976393278E+08, -1.403802350227779E+07,
2461729.500000000, A.D. 2027-Nov-20 00:00:00.0000, -1.126949486189440E+08, 3.965504807319113E+08, -1.372828552386677E+07,
2461736.500000000, A.D. 2027-Nov-27 00:00:00.0000, -1.234035752367258E+08, 3.939242391599541E+08, -1.340904874053861E+07,
2461743.500000000, A.D. 2027-Dec-04 00:00:00.0000, -1.340272214220390E+08, 3.910265495876377E+08, -1.308056981927368E+07,
2461750.500000000, A.D. 2027-Dec-11 00:00:00.0000, -1.445589360806498E+08, 3.878604721616830E+08, -1.274311048856659E+07,
2461757.500000000, A.D. 2027-Dec-18 00:00:00.0000, -1.549918925974683E+08, 3.844292451213470E+08, -1.239693721147124E+07,
2461764.500000000, A.D. 2027-Dec-25 00:00:00.0000, -1.653193932293291E+08, 3.807362792300557E+08, -1.204232086225897E+07,
2461771.500000000, A.D. 2028-Jan-01 00:00:00.0000, -1.755348732450875E+08, 3.767851520586995E+08, -1.167953640974998E+07,
$$EOE